OBJECT_NAME,OBJECT_ID,EPOCH,MEAN_MOTION,ECCENTRICITY,INCLINATION,RA_OF_ASC_NODE,ARG_OF_PERICENTER,MEAN_ANOMALY,EPHEMERIS_TYPE,CLASSIFICATION_TYPE,NORAD_CAT_ID,ELEMENT_SET_NO,REV_AT_EPOCH,BSTAR,MEAN_MOTION_DOT,MEAN_MOTION_DDOT
SPAINSAT NG I,2025-021A,2026-06-22T07:44:36.514176,1.00270366,.00001133,0.0172,0.1200,41.2368,14.2879,0,U,62852,999,403,0,.153E-5,0
QZS-6 (MICHIBIKI-6),2025-023A,2026-06-24T23:20:26.700000,1.00273359,.0001949,0.0585,280.1320,187.4168,246.1806,0,U,62876,999,502,0,-.224E-5,0
ZHONGXING-10R,2025-036A,2026-06-24T04:49:38.882208,1.00269667,.00040941,0.0717,252.6021,246.7318,315.9416,0,U,63075,999,503,0,-.344E-5,0
TJS-15,2025-045A,2026-06-24T18:13:38.246016,1.00269476,.0004628,0.3019,85.5429,302.3509,252.7849,0,U,63157,999,483,0,-.256E-5,0
TIANLIAN 2-04,2025-062A,2026-06-25T04:25:35.103648,1.00272109,.0031237,4.3536,274.3220,10.3009,135.1638,0,U,63361,999,468,0,-.122E-5,0
TJS-16,2025-064A,2026-06-24T18:40:12.534240,1.00272190,.0003269,1.1181,81.4343,297.0884,335.0687,0,U,63397,999,446,0,-.97E-6,0
TJS-17,2025-073A,2026-06-24T17:10:29.801280,1.00273436,.0002062,1.0839,82.6517,309.1303,303.2742,0,U,63524,999,436,0,-.61E-6,0
TIANLIAN 2-05,2025-084A,2026-06-24T19:35:04.680096,1.00274890,.0003382,4.4314,279.7471,153.9556,153.4019,0,U,63662,999,445,0,.137E-5,0
TJS-19,2025-097A,2026-06-24T18:44:37.441824,1.00274749,.0002968,3.2730,317.5741,241.0685,136.6877,0,U,63924,999,422,0,-.266E-5,0
CHINASAT 3B,2025-106A,2026-06-24T21:59:40.714080,1.00271610,.0003506,0.0426,158.9631,327.3694,283.9450,0,U,64062,999,413,0,-.36E-6,0
SXM-10,2025-122A,2026-06-24T04:55:20.048160,1.00271122,.00018225,0.0197,32.6409,338.2670,219.1186,0,U,64290,999,375,0,-.9E-7,0
COSMOS 2589,2025-131A,2026-06-24T16:07:15.286944,1.00270569,.0001044,0.0431,97.2859,347.1395,168.1766,0,U,64467,999,363,0,-.282E-5,0
CHINASAT 9C,2025-132A,2026-06-24T23:20:56.653152,1.00272560,.0003317,0.0304,96.4960,353.9960,265.0658,0,U,64470,999,422,0,-.238E-5,0
MTG-S1,2025-143A,2026-06-24T04:05:11.035968,1.00400785,.00006287,0.5974,340.4907,289.7945,62.5960,0,U,64723,999,348,0,.2E-6,0
DROR 1,2025-148A,2026-06-25T04:01:29.913312,1.00271584,.0002756,0.0152,308.9028,88.2129,292.5472,0,U,64784,999,337,0,-.25E-6,0
SHIYAN-29,2025-196A,2026-06-24T01:06:58.681728,1.00284100,.00125586,28.8290,18.4487,175.7757,189.5416,0,U,65486,999,295,0,-.282E-5,0
NUSANTARA LIMA (NUSANTARA 5),2025-205A,2026-06-25T01:09:33.774912,1.00269667,.0000315,0.0367,148.1537,353.9981,261.2923,0,U,65588,999,279,0,-.348E-5,0
TJS-20,2025-238A,2026-06-24T23:12:27.465984,1.00269888,.0004587,5.4515,299.5256,162.2869,221.8174,0,U,66142,999,241,0,.37E-6,0
CMS-03 (GSAT-7R),2025-249B,2026-06-25T04:23:42.782784,1.00270596,.0002091,0.0262,271.9157,165.4692,335.8426,0,U,66311,999,242,0,-.67E-6,0
VIASAT-3 F2,2025-261A,2026-06-24T05:25:35.955840,1.00268591,.00004206,0.0077,239.3575,289.1652,106.2799,0,U,66454,999,286,0,-.226E-5,0
SHIJIAN-28 (SJ-28),2025-277A,2026-06-25T01:10:41.166912,1.00274094,.0000857,4.5176,272.0053,44.7570,90.9334,0,U,66549,999,223,0,-.346E-5,0
TJS-22,2025-290A,2026-06-24T20:31:38.618112,1.00272293,.0002247,1.5104,286.6522,322.3814,38.3370,0,U,66990,999,210,0,.4E-7,0
TJS-23,2025-306A,2026-06-24T13:57:31.654368,1.00267423,.0004773,5.5714,297.4484,179.8475,180.2975,0,U,67226,999,196,0,.26E-6,0
FENGYUN 4C,2025-312A,2026-06-24T18:40:06.588192,1.00272181,.0000563,0.0546,153.6625,0.1936,172.1024,0,U,67246,999,185,0,-.314E-5,0
SHIJIAN-29A (SJ-29A),2025-315A,2026-06-24T18:07:31.807200,1.00270951,.0003485,3.4174,94.9283,22.7855,140.2226,0,U,67302,999,169,0,-.6E-6,0
SHIJIAN-29B (SJ-29B),2025-315C,2026-06-24T18:07:39.293760,1.00270658,.0004341,3.4163,94.9213,34.8100,128.2693,0,U,67403,999,176,0,-.6E-6,0
ELEKTRO-L 5,2026-028A,2026-06-25T00:43:06.110112,1.00272190,.0001768,0.2379,314.8468,182.3511,222.8118,0,U,67756,999,133,0,-.88E-6,0
JAM-E JAM 1,2026-028B,2026-06-25T04:12:21.371040,1.00280476,.0000957,0.2430,304.9828,275.6783,149.8845,0,U,67757,999,120,0,.166E-5,0
ECHOSTAR 25,2026-045A,2026-06-25T03:31:17.319072,1.00271511,.0001825,0.0150,8.2114,79.6602,128.2301,0,U,68126,999,107,0,-.47E-6,0
TJS-24,2026-116A,2026-06-24T23:20:26.700000,1.00271416,.0000513,0.0384,117.4556,321.9002,274.1619,0,U,69235,999,30,0,-.222E-5,0
