SPAINSAT NG I           
1 62852U 25021A   26173.32264484  .00000153  00000+0  00000+0 0  9992
2 62852   0.0172   0.1200 0000113  41.2368  14.2879  1.00270366  4030
QZS-6 (MICHIBIKI-6)     
1 62876U 25023A   26175.97253125 -.00000224  00000+0  00000+0 0  9993
2 62876   0.0585 280.1320 0001949 187.4168 246.1806  1.00273359  5027
ZHONGXING-10R           
1 63075U 25036A   26175.20114447 -.00000344  00000+0  00000+0 0  9991
2 63075   0.0717 252.6021 0004094 246.7318 315.9416  1.00269667  5038
TJS-15                  
1 63157U 25045A   26175.75947044 -.00000256  00000+0  00000+0 0  9991
2 63157   0.3019  85.5429 0004628 302.3509 252.7849  1.00269476  4839
TIANLIAN 2-04           
1 63361U 25062A   26176.18443407 -.00000122  00000+0  00000+0 0  9991
2 63361   4.3536 274.3220 0031237  10.3009 135.1638  1.00272109  4688
TJS-16                  
1 63397U 25064A   26175.77792285 -.00000097  00000+0  00000+0 0  9998
2 63397   1.1181  81.4343 0003269 297.0884 335.0687  1.00272190  4461
TJS-17                  
1 63524U 25073A   26175.71562270 -.00000061  00000+0  00000+0 0  9994
2 63524   1.0839  82.6517 0002062 309.1303 303.2742  1.00273436  4361
TIANLIAN 2-05           
1 63662U 25084A   26175.81602639  .00000137  00000+0  00000+0 0  9997
2 63662   4.4314 279.7471 0003382 153.9556 153.4019  1.00274890  4455
TJS-19                  
1 63924U 25097A   26175.78098891 -.00000266  00000+0  00000+0 0  9991
2 63924   3.2730 317.5741 0002968 241.0685 136.6877  1.00274749  4220
CHINASAT 3B             
1 64062U 25106A   26175.91644345 -.00000036  00000+0  00000+0 0  9997
2 64062   0.0426 158.9631 0003506 327.3694 283.9450  1.00271610  4130
SXM-10                  
1 64290U 25122A   26175.20509315 -.00000009  00000+0  00000+0 0  9997
2 64290   0.0197  32.6409 0001822 338.2670 219.1186  1.00271122  3755
COSMOS 2589             
1 64467U 25131A   26175.67170471 -.00000282  00000+0  00000+0 0  9994
2 64467   0.0431  97.2859 0001044 347.1395 168.1766  1.00270569  3635
CHINASAT 9C             
1 64470U 25132A   26175.97287793 -.00000238  00000+0  00000+0 0  9999
2 64470   0.0304  96.4960 0003317 353.9960 265.0658  1.00272560  4226
MTG-S1                  
1 64723U 25143A   26175.17026662  .00000020  00000+0  00000+0 0  9998
2 64723   0.5974 340.4907 0000628 289.7945  62.5960  1.00400785  3484
DROR 1                  
1 64784U 25148A   26176.16770733 -.00000025  00000+0  00000+0 0  9991
2 64784   0.0152 308.9028 0002756  88.2129 292.5472  1.00271584  3371
SHIYAN-29               
1 65486U 25196A   26175.04651252 -.00000282  00000+0  00000+0 0  9999
2 65486  28.8290  18.4487 0012558 175.7757 189.5416  1.00284100  2958
NUSANTARA LIMA (NUSANT*)
1 65588U 25205A   26176.04830758 -.00000348  00000+0  00000+0 0  9997
2 65588   0.0367 148.1537 0000315 353.9981 261.2923  1.00269667  2796
TJS-20                  
1 66142U 25238A   26175.96698456  .00000037  00000+0  00000+0 0  9991
2 66142   5.4515 299.5256 0004587 162.2869 221.8174  1.00269888  2411
CMS-03 (GSAT-7R)        
1 66311U 25249B   26176.18313406 -.00000067  00000+0  00000+0 0  9999
2 66311   0.0262 271.9157 0002091 165.4692 335.8426  1.00270596  2425
VIASAT-3 F2             
1 66454U 25261A   26175.22611060 -.00000226  00000+0  00000+0 0  9999
2 66454   0.0077 239.3575 0000420 289.1652 106.2799  1.00268591  2866
SHIJIAN-28 (SJ-28)      
1 66549U 25277A   26176.04908758 -.00000346  00000+0  00000+0 0  9998
2 66549   4.5176 272.0053 0000857  44.7570  90.9334  1.00274094  2233
TJS-22                  
1 66990U 25290A   26175.85530808  .00000004  00000+0  00000+0 0  9998
2 66990   1.5104 286.6522 0002247 322.3814  38.3370  1.00272293  2105
TJS-23                  
1 67226U 25306A   26175.58161637  .00000026  00000+0  00000+0 0  9993
2 67226   5.5714 297.4484 0004773 179.8475 180.2975  1.00267423  1960
FENGYUN 4C              
1 67246U 25312A   26175.77785403 -.00000314  00000+0  00000+0 0  9997
2 67246   0.0546 153.6625 0000563   0.1936 172.1024  1.00272181  1856
SHIJIAN-29A (SJ-29A)    
1 67302U 25315A   26175.75522925 -.00000060  00000+0  00000+0 0  9997
2 67302   3.4174  94.9283 0003485  22.7855 140.2226  1.00270951  1691
SHIJIAN-29B (SJ-29B)    
1 67403U 25315C   26175.75531590 -.00000060  00000+0  00000+0 0  9997
2 67403   3.4163  94.9213 0004341  34.8100 128.2693  1.00270658  1769
ELEKTRO-L 5             
1 67756U 26028A   26176.02993183 -.00000088  00000+0  00000+0 0  9991
2 67756   0.2379 314.8468 0001768 182.3511 222.8118  1.00272190  1334
JAM-E JAM 1             
1 67757U 26028B   26176.17524735  .00000166  00000+0  00000+0 0  9997
2 67757   0.2430 304.9828 0000957 275.6783 149.8845  1.00280476  1206
ECHOSTAR 25             
1 68126U 26045A   26176.14672823 -.00000047  00000+0  00000+0 0  9995
2 68126   0.0150   8.2114 0001825  79.6602 128.2301  1.00271511  1076
TJS-24                  
1 69235U 26116A   26175.97253125 -.00000222  00000+0  00000+0 0  9991
2 69235   0.0384 117.4556 0000513 321.9002 274.1619  1.00271416   302
